MEAN_MOTION;ECCENTRICITY;INCLINATION;RA_OF_ASC_NODE;ARG_OF_PERICENTER;MEAN_ANOMALY;BSTAR;MEAN_MOTION_DOT;MEAN_MOTION_DDOT;TYPE
0.90044638;0.0030593;10.6986;308.2489;18.7652;323.8427;0;-1.26E-6;0;Intelsat
0.90044707;0.0030562;10.6962;308.2378;18.8392;333.3994;0;-1.36E-6;0;Intelsat
0.90044536;0.0030553;10.695;308.2323;18.8841;158.1895;0;-1.31E-6;0;Intelsat
0.90044203;0.0030536;10.6927;308.222;18.9395;144.6904;0;-1.19E-6;0;Intelsat
0.90044195;0.0030533;10.6925;308.2212;18.9446;167.7336;0;-1.19E-6;0;Intelsat
0.90044213;0.0030526;10.6915;308.2165;18.9444;329.4536;0;-1.22E-6;0;Intelsat
0.90044718;0.0030517;10.6878;308.2;19.0397;163.8296;0;-1.54E-6;0;Intelsat
0.9004474;0.0030512;10.6867;308.1953;19.0566;325.5077;0;-1.56E-6;0;Intelsat
0.90044496;0.0030507;10.6843;308.1844;19.127;335.0719;0;-1.43E-6;0;Intelsat
0.90044278;0.0030506;10.6819;308.1739;19.1943;333.0069;0;-1.28E-6;0;Intelsat
0.90044387;0.0030496;10.6797;308.1646;19.2774;291.0806;0;-1.3E-6;0;Intelsat
0.90044673;0.0030494;10.6776;308.1557;19.3409;231.4603;0;-1.42E-6;0;Intelsat
0.90044787;0.0030494;10.6756;308.147;19.3954;165.4137;0;-1.47E-6;0;Intelsat
0.90044686;0.0030488;10.6745;308.1422;19.4583;327.0945;0;-1.41E-6;0;Intelsat
0.90044451;0.0030485;10.673;308.136;19.495;174.9576;0;-1.29E-6;0;Intelsat
0.9004427;0.003048;10.6719;308.1312;19.5498;336.6324;0;-1.19E-6;0;Intelsat
0.90044189;0.0030477;10.6706;308.1251;19.5945;177.2217;0;-1.14E-6;0;Intelsat
0.90044262;0.003047;10.6694;308.12;19.6529;346.0915;0;-1.17E-6;0;Intelsat
0.90044452;0.0030465;10.6681;308.1144;19.6964;170.8846;0;-1.27E-6;0;Intelsat
0.90044716;0.0030449;10.6657;308.1042;19.8034;157.3149;0;-1.42E-6;0;Intelsat
0.90044716;0.0030449;10.6657;308.1042;19.8034;157.3149;0;-1.42E-6;0;Intelsat
0.90044576;0.0030425;10.6633;308.0939;19.9159;143.7641;0;-1.36E-6;0;Intelsat
0.90044559;0.0030424;10.6632;308.0932;19.9216;166.8346;0;-1.35E-6;0;Intelsat
0.90044286;0.0030392;10.6605;308.0821;20.0424;183.118;0;-1.21E-6;0;Intelsat
0.90044261;0.0030373;10.6595;308.0781;20.0712;322.0198;0;-1.19E-6;0;Intelsat
0.90044262;0.0030372;10.6594;308.0776;20.0754;337.9993;0;-1.19E-6;0;Intelsat
0.90044354;0.003036;10.658;308.0718;20.1548;173.1338;0;-1.22E-6;0;Intelsat
0.90044813;0.0030299;10.6544;308.0566;20.276;333.9854;0;-1.43E-6;0;Intelsat
0.90044811;0.0030287;10.6531;308.0512;20.3561;158.7118;0;-1.41E-6;0;Intelsat
0.90044477;0.0030245;10.6507;308.0409;20.4459;145.1906;0;-1.2E-6;0;Intelsat
0.9004444;0.0030159;10.6468;308.0245;20.5724;339.4562;0;-1.11E-6;0;Intelsat
0.90044649;0.003014;10.6455;308.0191;20.6377;164.218;0;-1.21E-6;0;Intelsat
0.90044864;0.0030084;10.643;308.0081;20.7176;173.773;0;-1.31E-6;0;Intelsat
0.90044799;0.0030063;10.6419;308.0032;20.7297;335.4879;0;-1.28E-6;0;Intelsat
0.90044509;0.0030013;10.6394;307.9922;20.803;345.0419;0;-1.15E-6;0;Intelsat
0.90044422;0.0029996;10.6381;307.9867;20.8343;169.8094;0;-1.13E-6;0;Intelsat
0.90044562;0.0029954;10.6357;307.9759;20.8859;173.4771;0;-1.24E-6;0;Intelsat
0.90044731;0.0029936;10.6345;307.971;20.8964;341.1157;0;-1.36E-6;0;Intelsat
0.90044964;0.0029908;10.632;307.9601;20.9247;350.7106;0;-1.55E-6;0;Intelsat
0.9004488;0.0029895;10.6308;307.9548;20.9552;175.4943;0;-1.54E-6;0;Intelsat
0.90044497;0.0029866;10.6285;307.9447;21.0036;161.9942;0;-1.38E-6;0;Intelsat
0.90044446;0.002985;10.626;307.934;21.0402;171.5823;0;-1.36E-6;0;Intelsat
0.90044794;0.0029844;10.6236;307.924;21.0692;158.0897;0;-1.53E-6;0;Intelsat
0.90044909;0.0029835;10.6212;307.914;21.1039;144.6206;0;-1.57E-6;0;Intelsat
0.90044903;0.0029837;10.6211;307.9133;21.1082;167.6641;0;-1.57E-6;0;Intelsat
0.90044491;0.0029822;10.6174;307.8978;21.2007;338.9171;0;-1.3E-6;0;Intelsat
0.9004443;0.0029817;10.6161;307.8924;21.2091;160.8357;0;-1.25E-6;0;Intelsat
0.90044621;0.0029813;10.6135;307.8815;21.2699;173.3147;0;-1.32E-6;0;Intelsat
0.90044772;0.0029803;10.6124;307.8767;21.3306;334.9584;0;-1.39E-6;0;Intelsat
0.90044911;0.0029796;10.6111;307.8711;21.3446;166.6771;0;-1.46E-6;0;Intelsat
0.90044767;0.0029779;10.6085;307.8603;21.4231;169.3267;0;-1.39E-6;0;Intelsat
0.90044379;0.0029757;10.6061;307.8501;21.505;155.787;0;-1.2E-6;0;Intelsat
0.90044428;0.0029727;10.6034;307.8392;21.6001;165.3149;0;-1.21E-6;0;Intelsat
0.90044595;0.0029715;10.6023;307.8344;21.6387;326.9778;0;-1.3E-6;0;Intelsat
0.90044806;0.0029671;10.5983;307.8181;21.7695;161.312;0;-1.41E-6;0;Intelsat
0.90044517;0.0029627;10.5957;307.8073;21.8625;170.7951;0;-1.24E-6;0;Intelsat
0.90044413;0.0029583;10.5933;307.7971;21.9448;157.2436;0;-1.15E-6;0;Intelsat
0.90044508;0.0029544;10.5919;307.7915;21.9726;344.3612;0;-1.18E-6;0;Intelsat
0.9004475;0.0029506;10.5902;307.7844;22.0521;225.239;0;-1.27E-6;0;Intelsat
0.90044866;0.0029482;10.5893;307.7807;22.0638;351.5529;0;-1.32E-6;0;Intelsat
0.9004496;0.002946;10.588;307.7752;22.1211;176.3167;0;-1.35E-6;0;Intelsat
0.90044561;0.0029383;10.5844;307.7601;22.1972;324.5097;0;-1.1E-6;0;Intelsat
0.90044411;0.0029348;10.5832;307.7545;22.2456;149.2987;0;-1.0E-6;0;Intelsat
0.90044401;0.0029358;10.5827;307.7532;22.2408;194.6237;0;-9.9E-7;0;Intelsat
0.90044576;0.0029313;10.5805;307.7435;22.2824;158.8741;0;-1.07E-6;0;Intelsat
0.90044923;0.002925;10.5779;307.7323;22.3316;168.4455;0;-1.27E-6;0;Intelsat
0.9004494;0.0029224;10.5766;307.7268;22.3483;353.2314;0;-1.3E-6;0;Intelsat
0.90044699;0.0029184;10.5742;307.7163;22.3763;343.692;0;-1.23E-6;0;Intelsat
0.90044558;0.0029164;10.573;307.7109;22.3932;164.5449;0;-1.18E-6;0;Intelsat
0.90044487;0.002914;10.5716;307.7051;22.4001;1.2049;0;-1.17E-6;0;Intelsat
0.90044647;0.0029117;10.5693;307.6949;22.4061;344.8914;0;-1.3E-6;0;Intelsat
0.90044819;0.0029107;10.5681;307.6897;22.4176;160.6728;0;-1.41E-6;0;Intelsat
0.90044975;0.0029086;10.5668;307.6843;22.4219;345.4669;0;-1.52E-6;0;Intelsat
0.90044891;0.0029076;10.5642;307.6734;22.4346;355.0988;0;-1.5E-6;0;Intelsat
0.90044703;0.0029062;10.5631;307.6688;22.4427;156.8363;0;-1.41E-6;0;Intelsat
0.90044412;0.002904;10.5605;307.6579;22.4593;166.4232;0;-1.23E-6;0;Intelsat
0.90044668;0.002903;10.5579;307.647;22.4791;176.0066;0;-1.33E-6;0;Intelsat
0.90044917;0.0029014;10.5554;307.6367;22.508;162.5312;0;-1.43E-6;0;Intelsat
0.90044754;0.0029003;10.5529;307.6263;22.5399;149.0653;0;-1.32E-6;0;Intelsat
0.90044561;0.0028997;10.5514;307.62;22.594;356.8669;0;-1.21E-6;0;Intelsat
0.90044398;0.0028995;10.5489;307.6094;22.6361;350.7538;0;-1.1E-6;0;Intelsat
0.90044461;0.0028997;10.5476;307.6039;22.6271;168.1963;0;-1.13E-6;0;Intelsat
0.90044605;0.0028974;10.5464;307.5986;22.684;345.3754;0;-1.2E-6;0;Intelsat
0.90044877;0.0028965;10.5438;307.5878;22.7307;339.446;0;-1.36E-6;0;Intelsat
0.90044856;0.0028948;10.5425;307.5823;22.7366;160.2214;0;-1.35E-6;0;Intelsat
0.90044686;0.0028931;10.5412;307.5766;22.783;349.0165;0;-1.27E-6;0;Intelsat
0.90044464;0.0028921;10.5399;307.5709;22.8031;173.8233;0;-1.16E-6;0;Intelsat
0.90044292;0.0028893;10.5374;307.5605;22.8631;160.2981;0;-1.06E-6;0;Intelsat
0.90044622;0.0028862;10.5347;307.5494;22.9259;169.8464;0;-1.21E-6;0;Intelsat
0.9004482;0.0028821;10.5322;307.5389;22.9839;156.3381;0;-1.29E-6;0;Intelsat
0.90044602;0.0028774;10.5295;307.5277;23.0427;165.887;0;-1.15E-6;0;Intelsat
0.90044461;0.0028746;10.5283;307.5224;23.0538;338.7605;0;-1.05E-6;0;Intelsat
0.90044368;0.0028725;10.5269;307.5165;23.0943;175.4293;0;-9.8E-7;0;Intelsat
0.90044366;0.0028701;10.5262;307.5136;23.1045;267.614;0;-9.6E-7;0;Intelsat
0.90044669;0.0028644;10.5231;307.5004;23.1457;341.6616;0;-1.06E-6;0;Intelsat
0.90044824;0.0028624;10.5219;307.4953;23.1681;148.4435;0;-1.13E-6;0;Intelsat
0.90044906;0.0028593;10.5204;307.4889;23.1807;356.3238;0;-1.16E-6;0;Intelsat
0.90044644;0.0028542;10.518;307.4782;23.2078;342.8054;0;-1.03E-6;0;Intelsat
0.90044432;0.0028518;10.5167;307.4725;23.219;167.6289;0;-9.2E-7;0;Intelsat
0.90044332;0.0028491;10.5155;307.4673;23.2247;335.1941;0;-8.7E-7;0;Intelsat
0.90044364;0.0028468;10.5143;307.4617;23.2312;154.1586;0;-9.0E-7;0;Intelsat
0.9004473;0.0028422;10.5117;307.4503;23.2352;163.7742;0;-1.13E-6;0;Intelsat
0.90044854;0.0028397;10.5104;307.4446;23.2334;348.5783;0;-1.23E-6;0;Intelsat
0.9004484;0.0028384;10.5092;307.4389;23.2288;173.3909;0;-1.26E-6;0;Intelsat
0.90044578;0.0028354;10.5068;307.4283;23.2208;159.9558;0;-1.18E-6;0;Intelsat
0.90044445;0.0028338;10.5055;307.4227;23.211;344.7673;0;-1.13E-6;0;Intelsat
0.9004444;0.0028318;10.5029;307.4115;23.1995;354.381;0;-1.16E-6;0;Intelsat
0.90044747;0.0028308;10.5005;307.4011;23.192;341.4047;0;-1.33E-6;0;Intelsat
0.90044881;0.0028296;10.4979;307.3899;23.1882;350.5582;0;-1.4E-6;0;Intelsat
0.90044536;0.0028284;10.4955;307.3793;23.1883;337.0924;0;-1.2E-6;0;Intelsat
0.90044536;0.0028284;10.4955;307.3793;23.1883;337.0924;0;-1.2E-6;0;Intelsat
0.90044274;0.0028278;10.493;307.3686;23.1938;323.6276;0;-1.02E-6;0;Intelsat
0.9004437;0.002827;10.4915;307.3622;23.1661;171.5422;0;-1.05E-6;0;Intelsat
0.90044556;0.0028269;10.4902;307.3564;23.2066;356.3086;0;-1.13E-6;0;Intelsat
0.90044699;0.0028266;10.489;307.3514;23.1794;158.0741;0;-1.2E-6;0;Intelsat
0.90044697;0.0028259;10.4864;307.3398;23.1996;167.6779;0;-1.19E-6;0;Intelsat
0.90044543;0.0028254;10.485;307.3341;23.2465;352.4377;0;-1.12E-6;0;Intelsat
0.90044269;0.0028249;10.4826;307.3232;23.2715;339.5028;0;-9.8E-7;0;Intelsat
0.900443;0.0028239;10.4802;307.3129;23.2953;308.8867;0;-1.0E-6;0;Intelsat
0.90044328;0.0028231;10.4799;307.3116;23.3022;351.8382;0;-1.01E-6;0;Intelsat
0.90044641;0.0028208;10.4775;307.3008;23.3317;335.0501;0;-1.18E-6;0;Intelsat
0.90044702;0.0028181;10.475;307.2901;23.3632;321.5494;0;-1.22E-6;0;Intelsat
0.90044286;0.002814;10.4722;307.2779;23.3937;354.232;0;-1.0E-6;0;Intelsat
0.90044171;0.002811;10.4697;307.2672;23.4267;340.7263;0;-9.0E-7;0;Intelsat
0.90044668;0.0028052;10.4657;307.2498;23.4833;175.0962;0;-1.11E-6;0;Intelsat
0.90044691;0.0028027;10.4646;307.2447;23.4791;336.8281;0;-1.1E-6;0;Intelsat
0.90044448;0.0027981;10.4619;307.2332;23.5005;346.4034;0;-9.4E-7;0;Intelsat
0.90044236;0.0027932;10.4593;307.2215;23.5102;357.9397;0;-7.9E-7;0;Intelsat
0.90044402;0.0027884;10.4568;307.2103;23.5095;352.1899;0;-8.4E-7;0;Intelsat
